{
  "norad_id": 53924,
  "name": "STARLINK-5001",
  "history": [
    {
      "epoch": "2026-03-28T17:57:56.835072Z",
      "apogee_km": 540.6284223743141,
      "perigee_km": 538.8664372100457,
      "latitude_deg": -4.087826352200127e-05,
      "longitude_deg": 127.8127922614433,
      "height_km": 540.5689911035518,
      "semi_major_axis_km": 6917.88442979218,
      "eccentricity": 0.00012735,
      "inclination_deg": 53.2159,
      "raan_deg": 223.4642,
      "arg_perigee_deg": 85.174,
      "mean_anomaly_deg": 274.9397,
      "mean_motion_rev_day": 15.08838678
    },
    {
      "epoch": "2026-03-29T01:54:52.621344Z",
      "apogee_km": 540.637306361783,
      "perigee_km": 538.8607932241966,
      "latitude_deg": 1.6571161796254916e-05,
      "longitude_deg": 6.76714529257983,
      "height_km": 540.576468921607,
      "semi_major_axis_km": 6917.88604979299,
      "eccentricity": 0.0001284,
      "inclination_deg": 53.2159,
      "raan_deg": 221.9774,
      "arg_perigee_deg": 85.5942,
      "mean_anomaly_deg": 274.5197,
      "mean_motion_rev_day": 15.08838148
    },
    {
      "epoch": "2026-03-30T01:45:39.942144Z",
      "apogee_km": 540.6692261274156,
      "perigee_km": 538.8323885568097,
      "latitude_deg": 2.174604416403796e-05,
      "longitude_deg": 3.6297396401516036,
      "height_km": 540.4026889857918,
      "semi_major_axis_km": 6917.887807342112,
      "eccentricity": 0.00013276,
      "inclination_deg": 53.2168,
      "raan_deg": 217.5165,
      "arg_perigee_deg": 74.6013,
      "mean_anomaly_deg": 285.5126,
      "mean_motion_rev_day": 15.08837573
    },
    {
      "epoch": "2026-03-30T14:28:45.096672Z",
      "apogee_km": 540.6299437305133,
      "perigee_km": 538.8741834861694,
      "latitude_deg": -3.266341685107962e-05,
      "longitude_deg": 169.95800885136322,
      "height_km": 540.5402540438407,
      "semi_major_axis_km": 6917.8890636083415,
      "eccentricity": 0.0001269,
      "inclination_deg": 53.2159,
      "raan_deg": 215.1386,
      "arg_perigee_deg": 82.9662,
      "mean_anomaly_deg": 277.1474,
      "mean_motion_rev_day": 15.08837162
    },
    {
      "epoch": "2026-03-31T07:57:59.263488Z",
      "apogee_km": 540.5413974935691,
      "perigee_km": 538.9309166226049,
      "latitude_deg": 8.032712825942543e-06,
      "longitude_deg": -96.33956496469166,
      "height_km": 540.5086984105401,
      "semi_major_axis_km": 6917.873157058087,
      "eccentricity": 0.0001164,
      "inclination_deg": 53.2166,
      "raan_deg": 211.8682,
      "arg_perigee_deg": 81.1871,
      "mean_anomaly_deg": 278.9253,
      "mean_motion_rev_day": 15.08842366
    },
    {
      "epoch": "2026-04-01T14:10:18.996960Z",
      "apogee_km": 540.7132049418342,
      "perigee_km": 538.7789648313001,
      "latitude_deg": 7.110938558120141e-05,
      "longitude_deg": 163.68756575454393,
      "height_km": 540.5248955013174,
      "semi_major_axis_km": 6917.883084886567,
      "eccentricity": 0.0001398,
      "inclination_deg": 53.2166,
      "raan_deg": 206.218,
      "arg_perigee_deg": 83.0656,
      "mean_anomaly_deg": 277.0496,
      "mean_motion_rev_day": 15.08839118
    },
    {
      "epoch": "2026-04-02T17:11:50.334720Z",
      "apogee_km": 541.2534044690547,
      "perigee_km": 538.1362294523324,
      "latitude_deg": 5.559979938285045e-05,
      "longitude_deg": 112.14058865955548,
      "height_km": 540.7248398531374,
      "semi_major_axis_km": 6917.831816960693,
      "eccentricity": 0.0002253,
      "inclination_deg": 53.2132,
      "raan_deg": 201.1615,
      "arg_perigee_deg": 95.0077,
      "mean_anomaly_deg": 265.1173,
      "mean_motion_rev_day": 15.08855891
    },
    {
      "epoch": "2026-04-02T17:11:50.335584Z",
      "apogee_km": 541.2532661124178,
      "perigee_km": 538.1363678089683,
      "latitude_deg": 5.7439640904479495e-05,
      "longitude_deg": 112.14058641787153,
      "height_km": 540.7248277763671,
      "semi_major_axis_km": 6917.831816960693,
      "eccentricity": 0.00022528,
      "inclination_deg": 53.2132,
      "raan_deg": 201.1615,
      "arg_perigee_deg": 95.0077,
      "mean_anomaly_deg": 265.1173,
      "mean_motion_rev_day": 15.08855891
    },
    {
      "epoch": "2026-04-03T17:02:38.915232Z",
      "apogee_km": 540.47230941422,
      "perigee_km": 539.0292380246228,
      "latitude_deg": 5.043156906666647e-05,
      "longitude_deg": 108.99891173239762,
      "height_km": 540.542930118933,
      "semi_major_axis_km": 6917.887773719421,
      "eccentricity": 0.0001043,
      "inclination_deg": 53.2173,
      "raan_deg": 196.7016,
      "arg_perigee_deg": 81.7143,
      "mean_anomaly_deg": 278.3968,
      "mean_motion_rev_day": 15.08837584
    },
    {
      "epoch": "2026-04-04T12:07:17.008608Z",
      "apogee_km": 540.7484840419711,
      "perigee_km": 538.6818448863587,
      "latitude_deg": 1.188257757430072e-05,
      "longitude_deg": 178.48848542598003,
      "height_km": 540.9679229431678,
      "semi_major_axis_km": 6917.852164464165,
      "eccentricity": 0.00014937,
      "inclination_deg": 53.2177,
      "raan_deg": 193.1334,
      "arg_perigee_deg": 110.2165,
      "mean_anomaly_deg": 249.8988,
      "mean_motion_rev_day": 15.08849234
    },
    {
      "epoch": "2026-04-05T13:33:28.203264Z",
      "apogee_km": 540.7093295446466,
      "perigee_km": 538.8677777622634,
      "latitude_deg": -1.7454277291495584e-05,
      "longitude_deg": 151.14038013864484,
      "height_km": 540.8117323470793,
      "semi_major_axis_km": 6917.925553653455,
      "eccentricity": 0.0001331,
      "inclination_deg": 53.2177,
      "raan_deg": 188.3766,
      "arg_perigee_deg": 97.9523,
      "mean_anomaly_deg": 262.162,
      "mean_motion_rev_day": 15.08825224
    },
    {
      "epoch": "2026-04-06T05:27:19.583136Z",
      "apogee_km": 540.6415147236739,
      "perigee_km": 538.9134196897649,
      "latitude_deg": 1.7334557661284823e-05,
      "longitude_deg": -90.95056959774986,
      "height_km": 540.8343386754804,
      "semi_major_axis_km": 6917.914467206719,
      "eccentricity": 0.0001249,
      "inclination_deg": 53.2173,
      "raan_deg": 185.4026,
      "arg_perigee_deg": 100.739,
      "mean_anomaly_deg": 259.3743,
      "mean_motion_rev_day": 15.08828851
    },
    {
      "epoch": "2026-04-07T14:50:25.084896Z",
      "apogee_km": 540.5674879126454,
      "perigee_km": 538.8933639955649,
      "latitude_deg": 8.03298842599459e-06,
      "longitude_deg": 120.66082820901917,
      "height_km": 540.7214745053607,
      "semi_major_axis_km": 6917.867425954105,
      "eccentricity": 0.000121,
      "inclination_deg": 53.2164,
      "raan_deg": 179.158,
      "arg_perigee_deg": 96.5327,
      "mean_anomaly_deg": 263.5803,
      "mean_motion_rev_day": 15.08844241
    },
    {
      "epoch": "2026-04-08T11:30:25.933248Z",
      "apogee_km": 540.6314272272875,
      "perigee_km": 538.8343029937305,
      "latitude_deg": -3.8659729773088324e-05,
      "longitude_deg": 165.94319657164635,
      "height_km": 540.701773840568,
      "semi_major_axis_km": 6917.869865110509,
      "eccentricity": 0.00012989,
      "inclination_deg": 53.2159,
      "raan_deg": 175.2927,
      "arg_perigee_deg": 94.6769,
      "mean_anomaly_deg": 265.4371,
      "mean_motion_rev_day": 15.08843443
    },
    {
      "epoch": "2026-04-09T11:21:13.063968Z",
      "apogee_km": 540.5940940906721,
      "perigee_km": 538.8891137299515,
      "latitude_deg": 1.6006004812108264e-05,
      "longitude_deg": 162.8072183518625,
      "height_km": 540.7120116140767,
      "semi_major_axis_km": 6917.8786039103115,
      "eccentricity": 0.00012323,
      "inclination_deg": 53.216,
      "raan_deg": 170.8324,
      "arg_perigee_deg": 95.0251,
      "mean_anomaly_deg": 265.0882,
      "mean_motion_rev_day": 15.08840584
    },
    {
      "epoch": "2026-04-10T04:50:27.691296Z",
      "apogee_km": 540.5800156068117,
      "perigee_km": 538.9212445108769,
      "latitude_deg": 1.7854147864898045e-05,
      "longitude_deg": -103.4925113420447,
      "height_km": 540.7327975137792,
      "semi_major_axis_km": 6917.8876300588445,
      "eccentricity": 0.00011989,
      "inclination_deg": 53.2165,
      "raan_deg": 167.5618,
      "arg_perigee_deg": 95.9748,
      "mean_anomaly_deg": 264.1381,
      "mean_motion_rev_day": 15.08837631
    },
    {
      "epoch": "2026-04-11T20:35:06.402336Z",
      "apogee_km": 540.5569626254774,
      "perigee_km": 538.9616957319677,
      "latitude_deg": -1.893025814524736e-05,
      "longitude_deg": 11.279930437976262,
      "height_km": 540.660339640641,
      "semi_major_axis_km": 6917.896329178722,
      "eccentricity": 0.0001153,
      "inclination_deg": 53.2161,
      "raan_deg": 160.1278,
      "arg_perigee_deg": 90.3705,
      "mean_anomaly_deg": 269.7419,
      "mean_motion_rev_day": 15.08834785
    },
    {
      "epoch": "2026-04-12T20:25:53.730048Z",
      "apogee_km": 540.5815319159683,
      "perigee_km": 538.9365945900481,
      "latitude_deg": -2.036740509932702e-05,
      "longitude_deg": 8.1425897827135,
      "height_km": 540.6250090024372,
      "semi_major_axis_km": 6917.896063253008,
      "eccentricity": 0.00011889,
      "inclination_deg": 53.2161,
      "raan_deg": 155.667,
      "arg_perigee_deg": 87.9194,
      "mean_anomaly_deg": 272.1934,
      "mean_motion_rev_day": 15.08834872
    },
    {
      "epoch": "2026-04-14T20:07:27.725376Z",
      "apogee_km": 540.5389271731929,
      "perigee_km": 538.9519649400672,
      "latitude_deg": -2.730445675136833e-05,
      "longitude_deg": 1.8706664715657775,
      "height_km": 540.5973498544797,
      "semi_major_axis_km": 6917.88244605663,
      "eccentricity": 0.0001147,
      "inclination_deg": 53.2162,
      "raan_deg": 146.7454,
      "arg_perigee_deg": 86.8231,
      "mean_anomaly_deg": 273.2892,
      "mean_motion_rev_day": 15.08839327
    },
    {
      "epoch": "2026-04-15T19:58:14.628864Z",
      "apogee_km": 540.5203103477998,
      "perigee_km": 538.9610207219876,
      "latitude_deg": 3.41818044178762e-06,
      "longitude_deg": -1.264675266325156,
      "height_km": 540.5845544181825,
      "semi_major_axis_km": 6917.877665534893,
      "eccentricity": 0.0001127,
      "inclination_deg": 53.216,
      "raan_deg": 142.2848,
      "arg_perigee_deg": 86.1763,
      "mean_anomaly_deg": 273.9358,
      "mean_motion_rev_day": 15.08840891
    },
    {
      "epoch": "2026-04-16T08:41:19.691808Z",
      "apogee_km": 540.5323599284766,
      "perigee_km": 538.94678261834,
      "latitude_deg": -9.904182654702024e-06,
      "longitude_deg": 165.0629075481251,
      "height_km": 540.5820373144456,
      "semi_major_axis_km": 6917.8765712734075,
      "eccentricity": 0.0001146,
      "inclination_deg": 53.2159,
      "raan_deg": 139.9058,
      "arg_perigee_deg": 86.1392,
      "mean_anomaly_deg": 273.9731,
      "mean_motion_rev_day": 15.08841249
    },
    {
      "epoch": "2026-04-17T08:32:06.756000Z",
      "apogee_km": 540.5327242543517,
      "perigee_km": 538.9490836445784,
      "latitude_deg": 3.5496974532175166e-05,
      "longitude_deg": 161.92720499958492,
      "height_km": 540.555366893856,
      "semi_major_axis_km": 6917.877903949465,
      "eccentricity": 0.00011446,
      "inclination_deg": 53.216,
      "raan_deg": 135.4455,
      "arg_perigee_deg": 84.0999,
      "mean_anomaly_deg": 276.0124,
      "mean_motion_rev_day": 15.08840813
    },
    {
      "epoch": "2026-04-18T17:55:12.686304Z",
      "apogee_km": 540.5303872722361,
      "perigee_km": 538.9600280111008,
      "latitude_deg": 1.7385038014583225e-05,
      "longitude_deg": 13.536310236052968,
      "height_km": 540.5279159812331,
      "semi_major_axis_km": 6917.882207641668,
      "eccentricity": 0.0001135,
      "inclination_deg": 53.2157,
      "raan_deg": 129.2004,
      "arg_perigee_deg": 81.7151,
      "mean_anomaly_deg": 278.397,
      "mean_motion_rev_day": 15.08839405
    }
  ]
}